satname,norad_id,inclination_deg,eccentricity,mean_motion_rev_per_day,perigee_km,apogee_km,l1,l2
STARLINK-1184,45098,53.0534,0.0001729,15.07123185,543.7989767211338,546.1929961078349,1 45098U 20006BG  25364.97261476  .00008413  00000+0  57186-3 0  9991,2 45098  53.0534 195.0373 0001729 130.3576 229.7564 15.07123185326661
STARLINK-1193,45100,53.0543,0.0001604,15.06391516,546.1267302189235,548.348390377866,1 45100U 20006BJ  25365.37316512  .00000202  00000+0  32480-4 0  9991,2 45100  53.0543 193.3042 0001604 101.3182 258.7987 15.06391516326724
STARLINK-1143,45179,53.0524,0.0003141,15.4978712,415.21382493291185,419.4827487901175,1 45179U 20012B   25365.20457544  .00102550  00000+0  17970-2 0  9991,2 45179  53.0524 301.2856 0003141  93.3881 266.7486 15.49787120325264
STARLINK-1202,45183,53.0566,8.87e-05,15.0638909,546.630714335738,547.8592771017784,1 45183U 20012F   25365.23677898  .00002469  00000+0  18462-3 0  9991,2 45183  53.0566 353.9084 0000887 150.7379 209.3660 15.06389090324528
STARLINK-1216,45185,53.0555,0.0001406,15.0639182,546.2629210414107,548.2103361057661,1 45185U 20012H   25365.29575791 -.00001750  00000+0 -98648-4 0  9997,2 45185  53.0555 353.6513 0001406  82.7019 277.4130 15.06391820324471
STARLINK-1225,45187,53.0565,0.0001376,15.06394251,546.2762474652345,548.1821082373781,1 45187U 20012K   25365.24784562 -.00000189  00000+0  62211-5 0  9994,2 45187  53.0565 353.8649 0001376  91.3125 268.8022 15.06394251324516
STARLINK-1230,45189,53.0554,0.0001414,15.06386716,546.2730217411918,548.2315218272524,1 45189U 20012M   25365.25153655 -.00000787  00000+0 -33979-4 0  9993,2 45189  53.0554 353.8516 0001414  99.4749 260.6400 15.06386716321742
STARLINK-1234,45190,53.0514,0.0013013,15.47248715,415.92603777528166,433.63130610307053,1 45190U 20012N   25365.11493039  .00119364  00000+0  22728-2 0  9991,2 45190  53.0514 296.6051 0013013  70.8962 289.3452 15.47248715325218
STARLINK-1269,45197,53.0554,0.0001141,15.06391588,546.4471544145499,548.0275248388525,1 45197U 20012V   25365.26258968 -.00000938  00000+0 -44103-4 0  9995,2 45197  53.0554 353.8001 0001141  89.6486 270.4634 15.06391588324492
STARLINK-1154,45198,53.0565,0.0001503,15.23852347,493.2008602660653,495.2666949218101,1 45198U 20012W   25365.66668981  .01019280  00000+0  38299-1 0  9995,2 45198  53.0565 331.3856 0001503  88.8085 304.0344 15.23852347  5810
STARLINK-1199,45201,53.0553,0.0001385,15.06387778,546.289850897917,548.2081828245873,1 45201U 20012Z   25365.13174309 -.00000148  00000+0  89569-5 0  9991,2 45201  53.0553 334.3878 0001385 105.1385 254.9758 15.06387778324787
STARLINK-1209,45206,53.0521,0.0013247,15.39810436,437.62856801314774,455.7102100602615,1 45206U 20012AE  25365.62696767  .00084960  00000+0  20914-2 0  9996,2 45206  53.0521 297.6412 0013247  72.0729 288.1717 15.39810436324395
STARLINK-1210,45207,53.0211,0.0003792,15.74718405,342.8830345034812,347.98218969729805,1 45207U 20012AF  25365.66668981  .00211267  00000+0  13785-2 0  9998,2 45207  53.0211 246.0962 0003792 173.4923  72.7510 15.74718405  5987
STARLINK-1231,45212,53.0504,0.0001001,15.16299853,516.3449301922601,517.7253436540732,1 45212U 20012AL  25365.29300101  .00064296  00000+0  32663-2 0  9994,2 45212  53.0504 328.6306 0001001 125.7088 234.3999 15.16299853324832
STARLINK-1271,45217,53.0554,0.000146,15.06395061,546.2155922037764,548.2377984028044,1 45217U 20012AR  25365.31603728 -.00000008  00000+0  18381-4 0  9998,2 45217  53.0554 333.5601 0001460  87.2045 272.9111 15.06395061324818
STARLINK-1191,45222,53.0548,0.0001209,15.06439744,546.2524910663369,547.927010894723,1 45222U 20012AW  25365.25889874  .00026869  00000+0  18139-2 0  9996,2 45222  53.0548 313.8166 0001209 104.9160 255.1963 15.06439744325085
STARLINK-1212,45223,53.0537,0.0001631,15.17479637,512.3368274122613,514.5848666299598,1 45223U 20012AX  25365.66668981  .01865868  00000+0  83438-1 0  9990,2 45223  53.0537 312.3553 0001631 101.7397 359.0063 15.17479637  5801
STARLINK-1215,45225,53.0554,0.0001419,15.06386974,546.268768414413,548.234193665332,1 45225U 20012AZ  25365.10039959 -.00003899  00000+0 -24308-3 0  9990,2 45225  53.0554 314.5280 0001419  97.1381 262.9769 15.06386974325010
STARLINK-1221,45227,53.0658,0.0005398,15.39199701,444.78959604160355,452.1596059260264,1 45227U 20012BB  25365.66341701  .00020672  00000+0  53244-3 0  9991,2 45227  53.0658 231.2971 0005398 137.7126 222.4294 15.39199701326221
STARLINK-1222,45228,53.0589,0.0002232,15.42689139,436.6551531045661,439.6979554752015,1 45228U 20012BC  25365.24283137  .00046070  00000+0  10430-2 0  9993,2 45228  53.0589 309.4311 0002232  92.4489 267.6772 15.42689139325037
STARLINK-1226,45229,53.0561,0.0001508,15.06383364,546.2181951000493,548.3068956029265,1 45229U 20012BD  25365.09671523 -.00004478  00000+0 -28203-3 0  9993,2 45229  53.0561 314.5441 0001508 100.7652 259.3507 15.06383364324954
STARLINK-1227,45230,53.0552,0.0001151,15.06393232,546.4351909546294,548.0294109677097,1 45230U 20012BE  25365.15937198  .00001141  00000+0  95523-4 0  9997,2 45230  53.0552 314.2629 0001151 119.3171 240.7933 15.06393232325084
STARLINK-1246,45235,53.0552,0.0001568,15.06391832,546.1506932157918,548.3224903741784,1 45235U 20012BK  25365.37317138  .00001990  00000+0  15249-3 0  9990,2 45235  53.0552 353.3025 0001568  84.5056 275.6112 15.06391832324562
STARLINK-1270,45237,53.0548,0.0001116,15.36854212,454.6558889766693,456.1811385673436,1 45237U 20012BM  25365.66668981  .00077456  00000+0  21079-2 0  9996,2 45237  53.0548 309.8585 0001116  84.9477  58.8475 15.36854212  5801
STARLINK-1279,45360,53.0493,0.0003108,15.43369614,434.0549679397018,438.2907429458455,1 45360U 20019A   25365.62348032  .00029676  00000+0  66133-3 0  9990,2 45360  53.0493  65.5125 0003108 277.2152  82.8500 15.43369614320118
STARLINK-1301,45361,53.0482,0.0004868,15.48210684,418.6501324781766,425.2707073261936,1 45361U 20019B   25365.59965896  .00106769  00000+0  19753-2 0  9994,2 45361  53.0482  74.0629 0004868 295.4299  64.6204 15.48210684320003
STARLINK-1306,45362,53.0349,0.0005433,16.01395894,266.9400032798867,274.16446900387746,1 45362U 20019C   25365.51531383  .00544535  14383-3  96078-3 0  9993,2 45362  53.0349  46.3479 0005433  39.7453 320.3974 16.01395894320374
STARLINK-1262,45366,53.0571,0.000133,15.06378363,546.3567928426246,548.1989531988474,1 45366U 20019G   25365.62012800  .00000186  00000+0  31396-4 0  9996,2 45366  53.0571 112.1928 0001330  83.0838 277.0302 15.06378363319475
STARLINK-1273,45367,53.0559,0.0001395,15.06408983,546.2179441906874,548.1501087570732,1 45367U 20019H   25365.57587246  .00001695  00000+0  13260-3 0  9997,2 45367  53.0559 112.3906 0001395  74.6561 285.4582 15.06408983319464
STARLINK-1276,45368,53.0548,0.0001366,15.06390324,546.2952069794319,548.1872203073999,1 45368U 20019J   25365.61274373 -.00001119  00000+0 -56262-4 0  9990,2 45368  53.0548 112.2286 0001366  83.8355 276.2789 15.06390324319471
STARLINK-1277,45369,53.0565,0.0001526,15.06406456,546.1349661282784,548.2485764692783,1 45369U 20019K   25365.53909444 -.00000704  00000+0 -28389-4 0  9994,2 45369  53.0565 113.1874 0001526  77.5904 282.5256 15.06406456319453
STARLINK-1281,45370,53.056,0.0001484,15.06390634,546.2125375421483,548.2679895139636,1 45370U 20019L   25365.53534974 -.00000019  00000+0  17648-4 0  9992,2 45370  53.0560 112.5768 0001484  95.0697 265.0461 15.06390634319467
STARLINK-1300,45374,53.0571,0.000149,15.06400538,546.1780323568073,548.2417857357032,1 45374U 20019Q   25365.62381029 -.00000710  00000+0 -28770-4 0  9994,2 45374  53.0571 112.1755 0001490  88.5616 271.5544 15.06400538319470
STARLINK-1302,45375,53.0541,0.0001435,15.06418675,546.1605430395102,548.1481016490234,1 45375U 20019R   25365.57218402  .00001747  00000+0  13609-3 0  9996,2 45375  53.0541 112.4127 0001435  68.0450 292.0691 15.06418675319463
STARLINK-1304,45376,53.0549,0.0001159,15.19417041,506.8032407703813,508.39935490782045,1 45376U 20019S   25365.66668981  .01090834  00000+0  47026-1 0  9992,2 45376  53.0549 111.6927 0001159  74.4931 128.4878 15.19417041  5707
STARLINK-1305,45377,53.0497,0.0003038,15.41035714,440.97902860623617,445.12358262072667,1 45377U 20019T   25365.66668981  .00133756  00000+0  31448-2 0  9995,2 45377  53.0497  97.0659 0003038 230.9760 118.5387 15.41035714  5899
STARLINK-1319,45379,53.0517,0.0004123,15.44757024,429.2842451481065,434.8999600661173,1 45379U 20019V   25365.63087552  .00031466  00000+0  66840-3 0  9993,2 45379  53.0517  97.5845 0004123 233.1719 126.8909 15.44757024319686
STARLINK-1266,45383,53.0549,0.0001659,15.06439675,545.9410672932318,548.2388575993718,1 45383U 20019Z   25365.54454129  .00008430  00000+0  58353-3 0  9991,2 45383  53.0549  92.5292 0001659 110.5754 249.5414 15.06439675319732
STARLINK-1267,45384,53.056,0.0001099,15.37505975,452.7363768927171,454.23796788580876,1 45384U 20019AA  25365.66668981  .00132686  00000+0  35026-2 0  9990,2 45384  53.0560  90.2483 0001099  43.1778 131.3437 15.37505975  5813
STARLINK-1272,45386,53.0498,0.000461,15.43708258,432.03530937684354,438.3171841903795,1 45386U 20019AC  25365.61670272  .00031180  00000+0  68629-3 0  9996,2 45386  53.0498  76.1584 0004610 277.2150  82.8331 15.43708258319970
STARLINK-1274,45387,53.0328,0.0004071,15.37292554,451.33803182505835,456.90085502129386,1 45387U 20019AD  25365.48675741  .00075149  00000+0  20169-2 0  9997,2 45387  53.0328  66.5756 0004071  17.0592 343.0546 15.37292554320093
STARLINK-1280,45388,53.0503,0.0003567,15.49995502,414.3154824057956,419.1629470973994,1 45388U 20019AE  25365.58694979  .00111988  00000+0  19448-2 0  9993,2 45388  53.0503  93.2164 0003567 233.1978 126.8702 15.49995502319722
STARLINK-1283,45389,53.051,0.0005301,15.42170698,436.0899858049688,443.3182609639807,1 45389U 20019AF  25365.66668981  .00130137  00000+0  29472-2 0  9992,2 45389  53.0510  75.9810 0005301   2.4691  58.6999 15.42170698  5785
